OBJECT_NAME,OBJECT_ID,EPOCH,MEAN_MOTION,ECCENTRICITY,INCLINATION,RA_OF_ASC_NODE,ARG_OF_PERICENTER,MEAN_ANOMALY,EPHEMERIS_TYPE,CLASSIFICATION_TYPE,NORAD_CAT_ID,ELEMENT_SET_NO,REV_AT_EPOCH,BSTAR,MEAN_MOTION_DOT,MEAN_MOTION_DDOT
IRIDIUM 138,2017-083B,2026-06-07T13:10:23.238048,14.34217984,.0002406,86.3973,325.7403,88.8613,271.2858,0,U,43071,999,44275,.92011E-4,.277E-5,0
IRIDIUM 116,2017-083C,2026-06-07T17:26:07.120320,14.34217668,.0001879,86.3956,325.9577,92.8924,267.2487,0,U,43072,999,44281,.8292E-4,.252E-5,0
IRIDIUM 130,2017-083D,2026-06-07T13:19:31.107360,14.34218262,.000196,86.3968,326.3042,87.5243,272.6177,0,U,43073,999,44273,.81201E-4,.247E-5,0
IRIDIUM 151,2017-083E,2026-06-07T17:44:23.131104,14.34218049,.0002106,86.3960,326.0103,91.6062,268.5375,0,U,43074,999,44278,.46267E-4,.149E-5,0
IRIDIUM 134,2017-083F,2026-06-07T16:58:43.152096,14.34218204,.0002089,86.3962,326.0315,88.5597,271.5838,0,U,43075,999,44274,.1871E-4,.72E-6,0
IRIDIUM 137,2017-083G,2026-06-07T17:16:59.113632,14.34217637,.0001988,86.3960,326.1185,101.8865,258.2554,0,U,43076,999,44281,.31175E-4,.107E-5,0
IRIDIUM 141,2017-083H,2026-06-07T17:07:51.182112,14.34217202,.0002094,86.3954,325.9527,90.9345,269.2091,0,U,43077,999,44281,-.14742E-4,-.22E-6,0
IRIDIUM 153,2017-083J,2026-06-07T17:39:27.465120,14.34217722,.0002354,86.3956,294.4233,90.5046,269.6420,0,U,43078,999,44392,.7156E-5,.4E-6,0
IRIDIUM 131,2017-083K,2026-06-07T16:49:35.135040,14.34217354,.0002089,86.3959,326.1432,91.9660,268.1775,0,U,43079,999,44274,-.19958E-4,-.36E-6,0
IRIDIUM 144,2018-030A,2026-06-07T17:48:35.370720,14.34217824,.0002039,86.3953,294.3500,94.4422,265.7007,0,U,43249,999,42878,.36379E-4,.122E-5,0
IRIDIUM 149,2018-030B,2026-06-07T17:57:43.436160,14.34217891,.0002261,86.3951,294.3146,92.9590,267.1864,0,U,43250,999,42880,.15473E-4,.63E-6,0
IRIDIUM 157,2018-030C,2026-06-07T18:25:07.444128,14.34217635,.0002191,86.3952,294.3594,93.7283,266.4163,0,U,43251,999,42878,.6833E-5,.39E-6,0
IRIDIUM 140,2018-030D,2026-06-07T15:31:35.406048,14.34217779,.0002148,86.3953,294.4224,92.1732,267.9709,0,U,43252,999,42882,.91848E-5,.46E-6,0
IRIDIUM 145,2018-030E,2026-06-07T15:13:19.320096,14.34217639,.000184,86.3950,294.4000,96.3287,263.8118,0,U,43253,999,42875,.23757E-4,.86E-6,0
IRIDIUM 146,2018-030F,2026-06-07T18:06:51.384096,14.34217571,.0001979,86.3950,294.3621,95.3029,264.8392,0,U,43254,999,42878,-.52561E-6,.18E-6,0
IRIDIUM 148,2018-030G,2026-06-07T15:40:43.356576,14.34217496,.0002063,86.3950,294.4475,97.0589,263.0841,0,U,43255,999,42880,-.64109E-5,.2E-7,0
IRIDIUM 142,2018-030H,2026-06-07T18:15:59.383872,14.34217681,.0002039,86.3950,294.2915,96.1756,263.9672,0,U,43256,999,42878,.10106E-4,.48E-6,0
IRIDIUM 150,2018-030J,2026-06-07T17:30:19.422144,14.34217846,.0002169,86.3954,294.4208,92.2151,267.9293,0,U,43257,999,42880,.1423E-4,.6E-6,0
IRIDIUM 143,2018-030K,2026-06-07T10:21:03.406752,14.34217861,.0002076,86.3955,294.6376,93.7126,266.4307,0,U,43258,999,42869,.1647E-4,.66E-6,0
IRIDIUM 161,2018-047C,2026-06-07T17:45:36.083808,14.43277990,.0002566,86.4480,92.4207,88.5531,271.5964,0,U,43478,999,42377,.10392E-3,.37E-5,0
IRIDIUM 152,2018-047D,2026-06-07T18:04:06.297024,14.34217805,.000238,86.3955,92.2765,84.4418,275.7049,0,U,43479,999,42113,.71688E-5,.4E-6,0
IRIDIUM 147,2018-047E,2026-06-07T18:13:14.250144,14.34217654,.0002146,86.3958,92.2789,84.7884,275.3556,0,U,43480,999,42113,.23967E-4,.87E-6,0
IRIDIUM 110,2018-047F,2026-06-07T18:22:22.311264,14.34217638,.0002471,86.3960,92.3679,87.0153,273.1326,0,U,43481,999,42112,-.54194E-6,.18E-6,0
IRIDIUM 162,2018-047G,2026-06-07T17:36:31.915008,14.43276649,.0002355,86.4476,92.3147,83.6258,276.5211,0,U,43482,999,42376,.11149E-3,.395E-5,0
IRIDIUM 160,2018-061A,2026-06-07T17:04:22.470816,14.34217977,.0002275,86.3968,60.7592,86.7438,273.4018,0,U,43569,999,41201,.11482E-4,.52E-6,0
IRIDIUM 166,2018-061B,2026-06-07T17:40:54.451776,14.34217589,.0002009,86.3965,60.6987,85.2178,274.9247,0,U,43570,999,41204,-.29184E-5,.12E-6,0
IRIDIUM 158,2018-061C,2026-06-07T18:35:42.449568,14.34217563,.0002283,86.3966,60.6933,82.7174,277.4281,0,U,43571,999,41201,.42109E-4,.138E-5,0
IRIDIUM 165,2018-061D,2026-06-07T17:31:45.994080,14.34216278,.0002079,86.3970,60.7577,85.7816,274.3618,0,U,43572,999,41203,.8638E-4,.262E-5,0
IRIDIUM 155,2018-061E,2026-06-07T18:17:26.460384,14.34217777,.0002181,86.3963,60.6142,82.7367,277.4077,0,U,43573,999,41200,.2564E-5,.27E-6,0
IRIDIUM 154,2018-061F,2026-06-07T17:50:02.429088,14.34217943,.0002052,86.3968,60.7553,86.9645,273.1785,0,U,43574,999,41205,.24006E-4,.87E-6,0
IRIDIUM 163,2018-061G,2026-06-07T17:22:37.482816,14.34222576,.0002241,86.3967,60.6795,86.1525,273.9927,0,U,43575,999,41202,.84632E-4,.257E-5,0
