IRIDIUM 138             
1 43071U 17083B   26158.54888007  .00000277  00000+0  92011-4 0  9998
2 43071  86.3973 325.7403 0002406  88.8613 271.2858 14.34217984442751
IRIDIUM 116             
1 43072U 17083C   26158.72647130  .00000252  00000+0  82920-4 0  9990
2 43072  86.3956 325.9577 0001879  92.8924 267.2487 14.34217668442819
IRIDIUM 130             
1 43073U 17083D   26158.55522115  .00000247  00000+0  81201-4 0  9992
2 43073  86.3968 326.3042 0001960  87.5243 272.6177 14.34218262442739
IRIDIUM 151             
1 43074U 17083E   26158.73915661  .00000149  00000+0  46267-4 0  9999
2 43074  86.3960 326.0103 0002106  91.6062 268.5375 14.34218049442787
IRIDIUM 134             
1 43075U 17083F   26158.70744389  .00000072  00000+0  18710-4 0  9991
2 43075  86.3962 326.0315 0002089  88.5597 271.5838 14.34218204442740
IRIDIUM 137             
1 43076U 17083G   26158.72012863  .00000107  00000+0  31175-4 0  9998
2 43076  86.3960 326.1185 0001988 101.8865 258.2554 14.34217637442813
IRIDIUM 141             
1 43077U 17083H   26158.71378683 -.00000022  00000+0 -14742-4 0  9992
2 43077  86.3954 325.9527 0002094  90.9345 269.2091 14.34217202442810
IRIDIUM 153             
1 43078U 17083J   26158.73573455  .00000040  00000+0  71560-5 0  9999
2 43078  86.3956 294.4233 0002354  90.5046 269.6420 14.34217722443920
IRIDIUM 131             
1 43079U 17083K   26158.70110110 -.00000036  00000+0 -19958-4 0  9991
2 43079  86.3959 326.1432 0002089  91.9660 268.1775 14.34217354442747
IRIDIUM 144             
1 43249U 18030A   26158.74207605  .00000122  00000+0  36379-4 0  9993
2 43249  86.3953 294.3500 0002039  94.4422 265.7007 14.34217824428782
IRIDIUM 149             
1 43250U 18030B   26158.74841940  .00000063  00000+0  15473-4 0  9997
2 43250  86.3951 294.3146 0002261  92.9590 267.1864 14.34217891428808
IRIDIUM 157             
1 43251U 18030C   26158.76744727  .00000039  00000+0  68330-5 0  9999
2 43251  86.3952 294.3594 0002191  93.7283 266.4163 14.34217635428784
IRIDIUM 140             
1 43252U 18030D   26158.64693757  .00000046  00000+0  91848-5 0  9991
2 43252  86.3953 294.4224 0002148  92.1732 267.9709 14.34217779428827
IRIDIUM 145             
1 43253U 18030E   26158.63425139  .00000086  00000+0  23757-4 0  9995
2 43253  86.3950 294.4000 0001840  96.3287 263.8118 14.34217639428752
IRIDIUM 146             
1 43254U 18030F   26158.75476139  .00000018  00000+0 -52561-6 0  9998
2 43254  86.3950 294.3621 0001979  95.3029 264.8392 14.34217571428780
IRIDIUM 148             
1 43255U 18030G   26158.65327959  .00000002  00000+0 -64109-5 0  9996
2 43255  86.3950 294.4475 0002063  97.0589 263.0841 14.34217496428803
IRIDIUM 142             
1 43256U 18030H   26158.76110398  .00000048  00000+0  10106-4 0  9992
2 43256  86.3950 294.2915 0002039  96.1756 263.9672 14.34217681428784
IRIDIUM 150             
1 43257U 18030J   26158.72939146  .00000060  00000+0  14230-4 0  9995
2 43257  86.3954 294.4208 0002169  92.2151 267.9293 14.34217846428805
IRIDIUM 143             
1 43258U 18030K   26158.43128943  .00000066  00000+0  16470-4 0  9993
2 43258  86.3955 294.6376 0002076  93.7126 266.4307 14.34217861428694
IRIDIUM 161             
1 43478U 18047C   26158.74000097  .00000370  00000+0  10392-3 0  9992
2 43478  86.4480  92.4207 0002566  88.5531 271.5964 14.43277990423774
IRIDIUM 152             
1 43479U 18047D   26158.75285066  .00000040  00000+0  71688-5 0  9996
2 43479  86.3955  92.2765 0002380  84.4418 275.7049 14.34217805421138
IRIDIUM 147             
1 43480U 18047E   26158.75919271  .00000087  00000+0  23967-4 0  9997
2 43480  86.3958  92.2789 0002146  84.7884 275.3556 14.34217654421130
IRIDIUM 110             
1 43481U 18047F   26158.76553601  .00000018  00000+0 -54194-6 0  9993
2 43481  86.3960  92.3679 0002471  87.0153 273.1326 14.34217638421121
IRIDIUM 162             
1 43482U 18047G   26158.73370272  .00000395  00000+0  11149-3 0  9999
2 43482  86.4476  92.3147 0002355  83.6258 276.5211 14.43276649423763
IRIDIUM 160             
1 43569U 18061A   26158.71137119  .00000052  00000+0  11482-4 0  9991
2 43569  86.3968  60.7592 0002275  86.7438 273.4018 14.34217977412018
IRIDIUM 166             
1 43570U 18061B   26158.73674134  .00000012  00000+0 -29184-5 0  9994
2 43570  86.3965  60.6987 0002009  85.2178 274.9247 14.34217589412046
IRIDIUM 158             
1 43571U 18061C   26158.77479687  .00000138  00000+0  42109-4 0  9994
2 43571  86.3966  60.6933 0002283  82.7174 277.4281 14.34217563412016
IRIDIUM 165             
1 43572U 18061D   26158.73039345  .00000262  00000+0  86380-4 0  9991
2 43572  86.3970  60.7577 0002079  85.7816 274.3618 14.34216278412030
IRIDIUM 155             
1 43573U 18061E   26158.76211181  .00000027  00000+0  25640-5 0  9997
2 43573  86.3963  60.6142 0002181  82.7367 277.4077 14.34217777412007
IRIDIUM 154             
1 43574U 18061F   26158.74308367  .00000087  00000+0  24006-4 0  9999
2 43574  86.3968  60.7553 0002052  86.9645 273.1785 14.34217943412051
IRIDIUM 163             
1 43575U 18061G   26158.72404494  .00000257  00000+0  84632-4 0  9996
2 43575  86.3967  60.6795 0002241  86.1525 273.9927 14.34222576412028
